start=new Date('2022-05-06T00:00:00.000Z').valueOf();
sats=[{"MEAN_ANOMALY":"354.2936","RA_OF_ASC_NODE":"164.7151","SITE":"AFETR","REV_AT_EPOCH":"12905","NORAD_CAT_ID":"44931","ECCENTRICITY":"0.00037380","EPOCH":"2022-05-05T19:09:51.637248","MEAN_MOTION_DDOT":"0.0000000000000","TIME_SYSTEM":"UTC","TLE_LINE2":"2 44931  53.0525 164.7151 0003738   5.8098 354.2936 15.10688846129055","CLASSIFICATION_TYPE":"U","EPHEMERIS_TYPE":"0","APOAPSIS":"536.684","ELEMENT_SET_NO":"999","TLE_LINE1":"1 44931U 20001T   22125.79851432  .00001126  00000-0  84803-4 0  9992","SEMIMAJOR_AXIS":"6912.235","GP_ID":"202801623","BSTAR":"0.00008480300000","MEAN_MOTION":"15.10688846","CENTER_NAME":"EARTH","MEAN_ELEMENT_THEORY":"SGP4","RCS_SIZE":"LARGE","PERIAPSIS":"531.516","COUNTRY_CODE":"US","ARG_OF_PERICENTER":"5.8098","INCLINATION":"53.0525","REF_FRAME":"TEME","OBJECT_NAME":"STARLINK-1128","DECAY_DATE":null,"PERIOD":"95.321","OBJECT_TYPE":"PAYLOAD","FILE":"3430750","MEAN_MOTION_DOT":"0.00001126","LAUNCH_DATE":"2020-01-07","OBJECT_ID":"2020-001T"},{"APOAPSIS":"548.578","EPHEMERIS_TYPE":"0","TLE_LINE1":"1 44932U 20001U   22125.81175855  .00005693  00000-0  40064-3 0  9997","ELEMENT_SET_NO":"999","SEMIMAJOR_AXIS":"6925.314","GP_ID":"202779067","MEAN_MOTION":"15.06411233","BSTAR":"0.00040064000000","MEAN_ELEMENT_THEORY":"SGP4","CENTER_NAME":"EARTH","RA_OF_ASC_NODE":"168.8730","REV_AT_EPOCH":"12948","SITE":"AFETR","MEAN_ANOMALY":"315.0940","EPOCH":"2022-05-05T19:28:55.938720","MEAN_MOTION_DDOT":"0.0000000000000","ECCENTRICITY":"0.00020200","NORAD_CAT_ID":"44932","CLASSIFICATION_TYPE":"U","TLE_LINE2":"2 44932  53.0523 168.8730 0002020  45.0213 315.0940 15.06411233129486","TIME_SYSTEM":"UTC","MEAN_MOTION_DOT":"0.00005693","FILE":"3430635","LAUNCH_DATE":"2020-01-07","OBJECT_ID":"2020-001U","ARG_OF_PERICENTER":"45.0213","RCS_SIZE":"LARGE","PERIAPSIS":"545.780","COUNTRY_CODE":"US","OBJECT_NAME":"STARLINK-1130","INCLINATION":"53.0523","REF_FRAME":"TEME","DECAY_DATE":null,"OBJECT_TYPE":"PAYLOAD","PERIOD":"95.591"},{"MEAN_ANOMALY":"306.2680","SITE":"AFETR","REV_AT_EPOCH":"12949","RA_OF_ASC_NODE":"170.2524","NORAD_CAT_ID":"44933","ECCENTRICITY":"0.00017550","MEAN_MOTION_DDOT":"0.0000000000000","EPOCH":"2022-05-05T12:08:23.982432","TIME_SYSTEM":"UTC","CLASSIFICATION_TYPE":"U","TLE_LINE2":"2 44933  53.0549 170.2524 0001755  53.8471 306.2680 15.06397459129497","TLE_LINE1":"1 44933U 20001V   22125.50583313  .00001937  00000-0  14894-3 0  9995","ELEMENT_SET_NO":"999","EPHEMERIS_TYPE":"0","APOAPSIS":"548.437","SEMIMAJOR_AXIS":"6925.356","GP_ID":"202766921","BSTAR":"0.00014894000000","MEAN_MOTION":"15.06397459","CENTER_NAME":"EARTH","MEAN_ELEMENT_THEORY":"SGP4","COUNTRY_CODE":"US","PERIAPSIS":"546.006","RCS_SIZE":"LARGE","ARG_OF_PERICENTER":"53.8471","REF_FRAME":"TEME","INCLINATION":"53.0549","OBJECT_NAME":"STARLINK-1144","DECAY_DATE":null,"PERIOD":"95.592","OBJECT_TYPE":"PAYLOAD","MEAN_MOTION_DOT":"0.00001937","FILE":"3430353","LAUNCH_DATE":"2020-01-07","OBJECT_ID":"2020-001V"},{"ARG_OF_PERICENTER":"54.2163","PERIAPSIS":"546.076","RCS_SIZE":"LARGE","COUNTRY_CODE":"US","OBJECT_NAME":"STARLINK-1071","INCLINATION":"53.0544","REF_FRAME":"TEME","DECAY_DATE":null,"PERIOD":"95.592","OBJECT_TYPE":"PAYLOAD","FILE":"3430750","MEAN_MOTION_DOT":"0.00000947","LAUNCH_DATE":"2020-01-07","OBJECT_ID":"2020-001W","RA_OF_ASC_NODE":"149.8932","REV_AT_EPOCH":"12849","SITE":"AFETR","MEAN_ANOMALY":"305.8979","EPOCH":"2022-05-05T14:02:30.990624","MEAN_MOTION_DDOT":"0.0000000000000","ECCENTRICITY":"0.00016440","NORAD_CAT_ID":"44934","TLE_LINE2":"2 44934  53.0544 149.8932 0001644  54.2163 305.8979 15.06399601128494","CLASSIFICATION_TYPE":"U","TIME_SYSTEM":"UTC","APOAPSIS":"548.353","EPHEMERIS_TYPE":"0","TLE_LINE1":"1 44934U 20001W   22125.58508091  .00000947  00000-0  82497-4 0  9999","ELEMENT_SET_NO":"999","SEMIMAJOR_AXIS":"6925.350","GP_ID":"202801382","MEAN_MOTION":"15.06399601","BSTAR":"0.00008249700000","MEAN_ELEMENT_THEORY":"SGP4","CENTER_NAME":"EARTH"},{"MEAN_ELEMENT_THEORY":"SGP4","CENTER_NAME":"EARTH","MEAN_MOTION":"15.06408894","BSTAR":"0.00012875000000","SEMIMAJOR_AXIS":"6925.321","GP_ID":"202802122","EPHEMERIS_TYPE":"0","APOAPSIS":"548.383","TLE_LINE1":"1 44937U 20001Z   22125.76199808  .00001637  00000-0  12875-3 0  9993","ELEMENT_SET_NO":"999","CLASSIFICATION_TYPE":"U","TLE_LINE2":"2 44937  53.0540 149.0966 0001728  53.9024 306.2125 15.06408894128524","TIME_SYSTEM":"UTC","EPOCH":"2022-05-05T18:17:16.634112","MEAN_MOTION_DDOT":"0.0000000000000","NORAD_CAT_ID":"44937","ECCENTRICITY":"0.00017280","RA_OF_ASC_NODE":"149.0966","SITE":"AFETR","REV_AT_EPOCH":"12852","MEAN_ANOMALY":"306.2125","OBJECT_ID":"2020-001Z","LAUNCH_DATE":"2020-01-07","FILE":"3430750","MEAN_MOTION_DOT":"0.00001637","OBJECT_TYPE":"PAYLOAD","PERIOD":"95.592","DECAY_DATE":null,"OBJECT_NAME":"STARLINK-1079","INCLINATION":"53.0540","REF_FRAME":"TEME","ARG_OF_PERICENTER":"53.9024","RCS_SIZE":"LARGE","PERIAPSIS":"545.990","COUNTRY_CODE":"US"},{"MEAN_ANOMALY":"313.4183","RA_OF_ASC_NODE":"148.9478","REV_AT_EPOCH":"12852","SITE":"AFETR","NORAD_CAT_ID":"44938","ECCENTRICITY":"0.00019920","EPOCH":"2022-05-05T19:05:04.505856","MEAN_MOTION_DDOT":"0.0000000000000","TIME_SYSTEM":"UTC","TLE_LINE2":"2 44938  53.0542 148.9478 0001992  46.6972 313.4183 15.06397802128527","CLASSIFICATION_TYPE":"U","EPHEMERIS_TYPE":"0","APOAPSIS":"548.600","TLE_LINE1":"1 44938U 20001AA  22125.79519104  .00000480  00000-0  51145-4 0  9991","ELEMENT_SET_NO":"999","GP_ID":"202800879","SEMIMAJOR_AXIS":"6925.355","BSTAR":"0.00005114500000","MEAN_MOTION":"15.06397802","CENTER_NAME":"EARTH","MEAN_ELEMENT_THEORY":"SGP4","RCS_SIZE":"LARGE","PERIAPSIS":"545.841","COUNTRY_CODE":"US","ARG_OF_PERICENTER":"46.6972","INCLINATION":"53.0542","REF_FRAME":"TEME","OBJECT_NAME":"STARLINK-1082","DECAY_DATE":null,"OBJECT_TYPE":"PAYLOAD","PERIOD":"95.592","MEAN_MOTION_DOT":"0.00000480","FILE":"3430750","LAUNCH_DATE":"2020-01-07","OBJECT_ID":"2020-001AA"},{"DECAY_DATE":null,"PERIOD":"95.592","OBJECT_TYPE":"PAYLOAD","ARG_OF_PERICENTER":"47.4628","PERIAPSIS":"545.638","RCS_SIZE":"LARGE","COUNTRY_CODE":"US","OBJECT_NAME":"STARLINK-1083","INCLINATION":"53.0540","REF_FRAME":"TEME","OBJECT_ID":"2020-001AB","LAUNCH_DATE":"2020-01-07","FILE":"3430750","MEAN_MOTION_DOT":"-0.00000165","TLE_LINE2":"2 44939  53.0540 148.9110 0002232  47.4628 312.6549 15.06409797128528","CLASSIFICATION_TYPE":"U","TIME_SYSTEM":"UTC","RA_OF_ASC_NODE":"148.9110","REV_AT_EPOCH":"12852","SITE":"AFETR","MEAN_ANOMALY":"312.6549","EPOCH":"2022-05-05T19:15:39.788640","MEAN_MOTION_DDOT":"0.0000000000000","ECCENTRICITY":"0.00022320","NORAD_CAT_ID":"44939","MEAN_MOTION":"15.06409797","BSTAR":"0.00000783690000","MEAN_ELEMENT_THEORY":"SGP4","CENTER_NAME":"EARTH","EPHEMERIS_TYPE":"0","APOAPSIS":"548.729","TLE_LINE1":"1 44939U 20001AB  22125.80254385 -.00000165  00000-0  78369-5 0  9990","ELEMENT_SET_NO":"999","GP_ID":"202800631","SEMIMAJOR_AXIS":"6925.319"},{"ARG_OF_PERICENTER":"39.7428","PERIAPSIS":"545.697","RCS_SIZE":"LARGE","COUNTRY_CODE":"US","OBJECT_NAME":"STARLINK-1091","INCLINATION":"53.0544","REF_FRAME":"TEME","DECAY_DATE":null,"PERIOD":"95.593","OBJECT_TYPE":"PAYLOAD","FILE":"3430750","MEAN_MOTION_DOT":"0.00000580","LAUNCH_DATE":"2020-01-07","OBJECT_ID":"2020-001AC","RA_OF_ASC_NODE":"150.0538","REV_AT_EPOCH":"12848","SITE":"AFETR","MEAN_ANOMALY":"320.3723","EPOCH":"2022-05-05T13:09:26.905248","MEAN_MOTION_DDOT":"0.0000000000000","ECCENTRICITY":"0.00022170","NORAD_CAT_ID":"44940","CLASSIFICATION_TYPE":"U","TLE_LINE2":"2 44940  53.0544 150.0538 0002217  39.7428 320.3723 15.06393841128484","TIME_SYSTEM":"UTC","APOAPSIS":"548.768","EPHEMERIS_TYPE":"0","TLE_LINE1":"1 44940U 20001AC  22125.54822807  .00000580  00000-0  57832-4 0  9994","ELEMENT_SET_NO":"999","SEMIMAJOR_AXIS":"6925.367","GP_ID":"202801881","MEAN_MOTION":"15.06393841","BSTAR":"0.00005783200000","MEAN_ELEMENT_THEORY":"SGP4","CENTER_NAME":"EARTH"},{"TLE_LINE1":"1 44941U 20001AD  22125.76937689  .00001961  00000-0  15049-3 0  9991","ELEMENT_SET_NO":"999","EPHEMERIS_TYPE":"0","APOAPSIS":"548.669","GP_ID":"202778993","SEMIMAJOR_AXIS":"6925.350","MEAN_MOTION":"15.06399672","BSTAR":"0.00015049000000","MEAN_ELEMENT_THEORY":"SGP4","CENTER_NAME":"EARTH","SITE":"AFETR","REV_AT_EPOCH":"12852","RA_OF_ASC_NODE":"149.0633","MEAN_ANOMALY":"316.1922","MEAN_MOTION_DDOT":"0.0000000000000","EPOCH":"2022-05-05T18:27:54.163296","NORAD_CAT_ID":"44941","ECCENTRICITY":"0.00021000","CLASSIFICATION_TYPE":"U","TLE_LINE2":"2 44941  53.0535 149.0633 0002100  43.9234 316.1922 15.06399672128529","TIME_SYSTEM":"UTC","FILE":"3430630","MEAN_MOTION_DOT":"0.00001961","LAUNCH_DATE":"2020-01-07","OBJECT_ID":"2020-001AD","ARG_OF_PERICENTER":"43.9234","COUNTRY_CODE":"US","RCS_SIZE":"LARGE","PERIAPSIS":"545.760","OBJECT_NAME":"STARLINK-1094","REF_FRAME":"TEME","INCLINATION":"53.0535","DECAY_DATE":null,"PERIOD":"95.592","OBJECT_TYPE":"PAYLOAD"},{"OBJECT_ID":"2020-001AE","FILE":"3430750","MEAN_MOTION_DOT":"0.00001486","LAUNCH_DATE":"2020-01-07","DECAY_DATE":null,"PERIOD":"95.592","OBJECT_TYPE":"PAYLOAD","ARG_OF_PERICENTER":"56.0701","RCS_SIZE":"LARGE","PERIAPSIS":"545.953","COUNTRY_CODE":"US","OBJECT_NAME":"STARLINK-1096","INCLINATION":"53.0537","REF_FRAME":"TEME","MEAN_MOTION":"15.06399887","BSTAR":"0.00011865000000","MEAN_ELEMENT_THEORY":"SGP4","CENTER_NAME":"EARTH","APOAPSIS":"548.474","EPHEMERIS_TYPE":"0","ELEMENT_SET_NO":"999","TLE_LINE1":"1 44942U 20001AE  22125.75462485  .00001486  00000-0  11865-3 0  9992","SEMIMAJOR_AXIS":"6925.349","GP_ID":"202800381","TLE_LINE2":"2 44942  53.0537 149.1222 0001820  56.0701 304.0460 15.06399887128520","CLASSIFICATION_TYPE":"U","TIME_SYSTEM":"UTC","RA_OF_ASC_NODE":"149.1222","SITE":"AFETR","REV_AT_EPOCH":"12852","MEAN_ANOMALY":"304.0460","EPOCH":"2022-05-05T18:06:39.587040","MEAN_MOTION_DDOT":"0.0000000000000","ECCENTRICITY":"0.00018200","NORAD_CAT_ID":"44942"}];
